NORAD_CAT_ID,OBJECT_NAME,OBJECT_TYPE,EPOCH,MEAN_MOTION,ECCENTRICITY,INCLINATION,RA_OF_ASC_NODE,ARG_OF_PERICENTER,MEAN_ANOMALY,BSTAR,MEAN_MOTION_DOT,MEAN_MOTION_DDOT,TLE_LINE0,TLE_LINE1,TLE_LINE2,SEMIMAJOR_AXIS,PERIOD,APOGEE,PERIGEE,DECAYED
55921.0,STARLINK-5861,PAYLOAD,2024-06-20 04:20:19,14.98334757,0.0002901,69.9997,86.5817,270.0404,90.0423,4.0454e-05,3.9e-06,0.0,0 STARLINK-5861,1 55921U 23037H   24172.18078360  .00000390  00000-0  40454-4 0  9999,2 55921  69.9997  86.5817 0002901 270.0404  90.0423 14.98334757 69832,6950.178,96.107,574.059,570.027,0.0
55921.0,STARLINK-5861,PAYLOAD,2024-06-20 21:57:48,14.98329003,0.0002875,69.9999,84.7298,270.9582,89.1248,2.676e-05,2.26e-06,0.0,0 STARLINK-5861,1 55921U 23037H   24172.91514665  .00000226  00000-0  26760-4 0  9995,2 55921  69.9999  84.7298 0002875 270.9582  89.1248 14.98329003 69600,6950.196,96.107,574.059,570.063,0.0
55921.0,STARLINK-5861,PAYLOAD,2024-06-20 23:33:56,14.98328969,0.0002875,69.9999,84.5615,270.9432,89.1398,2.5855e-05,2.16e-06,0.0,0 STARLINK-5861,1 55921U 23037H   24172.98190672  .00000216  00000-0  25855-4 0  9993,2 55921  69.9999  84.5615 0002875 270.9432  89.1398 14.98328969 69959,6950.196,96.107,574.059,570.063,0.0
55921.0,STARLINK-5861,PAYLOAD,2024-06-21 04:22:20,14.98333327,0.0002853,69.9999,84.0566,270.3512,89.732,3.5323e-05,3.29e-06,0.0,0 STARLINK-5861,1 55921U 23037H   24173.18218343  .00000329  00000-0  35323-4 0  9998,2 55921  69.9999  84.0566 0002853 270.3512  89.7320 14.98333327 69649,6950.183,96.107,574.03,570.065,0.0
55921.0,STARLINK-5861,PAYLOAD,2024-06-21 21:59:49,14.98328373,0.0002783,70.0,82.2052,270.3971,89.6869,-3.9407e-05,-5.63e-06,0.0,0 STARLINK-5861,1 55921U 23037H   24173.91654861 -.00000563  00000-0 -39407-4 0  9997,2 55921  70.0000  82.2052 0002783 270.3971  89.6869 14.98328373 69750,6950.198,96.107,573.997,570.129,0.0
55921.0,STARLINK-5861,PAYLOAD,2024-06-22 04:24:21,14.98331226,0.0002684,70.0002,81.5327,266.1262,93.959,1.9777e-06,-6.9e-07,0.0,0 STARLINK-5861,1 55921U 23037H   24174.18358550 -.00000069  00000-0  19777-5 0  9992,2 55921  70.0002  81.5327 0002684 266.1262  93.9590 14.98331226 70139,6950.189,96.107,573.92,570.189,0.0
55921.0,STARLINK-5861,PAYLOAD,2024-06-22 22:01:50,14.98333169,0.0002717,70.0001,79.6811,266.3736,93.7113,4.0445e-05,3.9e-06,0.0,0 STARLINK-5861,1 55921U 23037H   24174.91794144  .00000390  00000-0  40445-4 0  9997,2 55921  70.0001  79.6811 0002717 266.3736  93.7113 14.98333169 69909,6950.183,96.107,573.936,570.16,0.0
55921.0,STARLINK-5861,PAYLOAD,2024-06-23 02:50:14,14.98335239,0.00027,70.0001,79.1761,266.2841,93.8009,6.1525e-05,6.41e-06,0.0,0 STARLINK-5861,1 55921U 23037H   24175.11821903  .00000641  00000-0  61525-4 0  9995,2 55921  70.0001  79.1761 0002700 266.2841  93.8009 14.98335239 70273,6950.177,96.107,573.918,570.165,0.0
55921.0,STARLINK-5861,PAYLOAD,2024-06-23 20:27:43,14.98329832,0.0002661,70.0001,77.3244,260.6577,99.4281,2.1458e-05,1.63e-06,0.0,0 STARLINK-5861,1 55921U 23037H   24175.85258187  .00000163  00000-0  21458-4 0  9994,2 55921  70.0001  77.3244 0002661 260.6577  99.4281 14.98329832 70387,6950.193,96.107,573.908,570.209,0.0
55921.0,STARLINK-5861,PAYLOAD,2024-06-23 22:03:51,14.98329385,0.000268,70.0001,77.156,260.6653,99.4203,1.4446e-05,7.9e-07,0.0,0 STARLINK-5861,1 55921U 23037H   24175.91934229  .00000079  00000-0  14446-4 0  9994,2 55921  70.0001  77.1560 0002680 260.6653  99.4203 14.98329385 70053,6950.195,96.107,573.922,570.197,0.0
55921.0,STARLINK-5861,PAYLOAD,2024-06-24 02:52:15,14.98330478,0.0002673,70.0002,76.6512,260.8524,99.2333,2.4496e-05,1.99e-06,0.0,0 STARLINK-5861,1 55921U 23037H   24176.11962124  .00000199  00000-0  24496-4 0  9991,2 55921  70.0002  76.6512 0002673 260.8524  99.2333 14.98330478 70086,6950.191,96.107,573.914,570.199,0.0
55921.0,STARLINK-5861,PAYLOAD,2024-06-24 20:29:44,14.9832935,0.000282,69.9996,74.7984,267.439,92.6446,-7.3361e-05,-9.68e-06,0.0,0 STARLINK-5861,1 55921U 23037H   24176.85398446 -.00000968  00000-0 -73361-4 0  9993,2 55921  69.9996  74.7984 0002820 267.4390  92.6446 14.98329350 70534,6950.195,96.107,574.02,570.1,0.0
55921.0,STARLINK-5861,PAYLOAD,2024-06-24 22:05:52,14.98328912,0.0002828,69.9997,74.63,267.3734,92.7101,-7.7259e-05,-1.015e-05,0.0,0 STARLINK-5861,1 55921U 23037H   24176.92074485 -.00001015  00000-0 -77259-4 0  9999,2 55921  69.9997  74.6300 0002828 267.3734  92.7101 14.98328912 70201,6950.196,96.107,574.027,570.096,0.0
55921.0,STARLINK-5861,PAYLOAD,2024-06-25 02:54:16,14.98330752,0.0002811,69.9998,74.1253,267.1626,92.9212,-5.0564e-05,-6.96e-06,0.0,0 STARLINK-5861,1 55921U 23037H   24177.12102296 -.00000696  00000-0 -50564-4 0  9998,2 55921  69.9998  74.1253 0002811 267.1626  92.9212 14.98330752 70237,6950.191,96.107,574.009,570.102,0.0
55921.0,STARLINK-5861,PAYLOAD,2024-06-25 20:31:44,14.98331968,0.0002909,69.9998,72.2734,267.8318,92.2508,1.8627e-05,1.29e-06,0.0,0 STARLINK-5861,1 55921U 23037H   24177.85537953  .00000129  00000-0  18627-4 0  9993,2 55921  69.9998  72.2734 0002909 267.8318  92.2508 14.98331968 70683,6950.187,96.107,574.074,570.03,0.0
55921.0,STARLINK-5861,PAYLOAD,2024-06-25 22:07:52,14.98332161,0.0002906,69.9998,72.1051,267.9461,92.1366,2.1319e-05,1.61e-06,0.0,0 STARLINK-5861,1 55921U 23037H   24177.92213928  .00000161  00000-0  21319-4 0  9992,2 55921  69.9998  72.1051 0002906 267.9461  92.1366 14.98332161 70352,6950.186,96.107,574.071,570.031,0.0
55921.0,STARLINK-5861,PAYLOAD,2024-06-26 02:56:16,14.98335942,0.000288,69.9999,71.6005,267.8119,92.2711,6.3935e-05,6.7e-06,0.0,0 STARLINK-5861,1 55921U 23037H   24178.12241526  .00000670  00000-0  63935-4 0  9995,2 55921  69.9999  71.6005 0002880 267.8119  92.2711 14.98335942 70384,6950.175,96.107,574.041,570.038,0.0
55921.0,STARLINK-5861,PAYLOAD,2024-06-27 02:58:18,14.98325251,0.0002758,70.0006,69.0781,252.933,107.1527,-1.2179e-05,-2.38e-06,0.0,0 STARLINK-5861,1 55921U 23037H   24179.12382401 -.00000238  00000-0 -12179-4 0  9990,2 55921  70.0006  69.0781 0002758 252.9330 107.1527 14.98325251 70879,6950.208,96.107,573.989,570.156,0.0
55921.0,STARLINK-5861,PAYLOAD,2024-06-27 22:11:55,14.98330713,0.0002823,70.0003,67.0561,267.6258,92.4578,-3.3828e-05,-4.97e-06,0.0,0 STARLINK-5861,1 55921U 23037H   24179.92494255 -.00000497  00000-0 -33828-4 0  9990,2 55921  70.0003  67.0561 0002823 267.6258  92.4578 14.98330713 70652,6950.191,96.107,574.018,570.094,0.0
55921.0,STARLINK-5861,PAYLOAD,2024-06-28 03:00:18,14.98334481,0.0002776,70.0004,66.5514,266.9462,93.1379,1.0671e-05,3.4e-07,0.0,0 STARLINK-5861,1 55921U 23037H   24180.12521858  .00000034  00000-0  10671-4 0  9990,2 55921  70.0004  66.5514 0002776 266.9462  93.1379 14.98334481 71026,6950.179,96.107,573.973,570.115,0.0
55921.0,STARLINK-5861,PAYLOAD,2024-06-28 09:24:50,14.98355584,0.0002876,70.0007,65.8773,273.482,86.601,-0.00041076,-4.994e-05,0.0,0 STARLINK-5861,1 55921U 23037H   24180.39225406 -.00004994  00000-0 -41076-3 0  9992,2 55921  70.0007  65.8773 0002876 273.4820  86.6010 14.98355584 71060,6950.114,96.105,573.978,569.98,0.0
55921.0,STARLINK-5861,PAYLOAD,2024-06-28 20:37:47,14.98355888,0.0002746,70.0002,64.6994,270.2922,89.7922,-0.00032464,-3.967e-05,0.0,0 STARLINK-5861,1 55921U 23037H   24180.85957917 -.00003967  00000-0 -32464-3 0  9992,2 55921  70.0002  64.6994 0002746 270.2922  89.7922 14.98355888 71132,6950.113,96.105,573.886,570.069,0.0
55921.0,STARLINK-5861,PAYLOAD,2024-06-28 22:13:55,14.98348351,0.0002703,70.0004,64.5309,264.0939,95.9912,-0.00018945,-2.354e-05,0.0,0 STARLINK-5861,1 55921U 23037H   24180.92633736 -.00002354  00000-0 -18945-3 0  9997,2 55921  70.0004  64.5309 0002703 264.0939  95.9912 14.98348351 70803,6950.136,96.106,573.88,570.123,0.0
55921.0,STARLINK-5861,PAYLOAD,2024-06-29 01:26:11,14.98337904,0.0002678,70.0003,64.1933,272.924,87.1612,0.00011184,1.242e-05,0.0,0 STARLINK-5861,1 55921U 23037H   24181.05985291  .00001242  00000-0  11184-3 0  9999,2 55921  70.0003  64.1933 0002678 272.9240  87.1612 14.98337904 70829,6950.168,96.106,573.895,570.172,0.0
55921.0,STARLINK-5861,PAYLOAD,2024-06-29 19:03:40,14.98324775,0.0003338,69.9992,62.3397,270.4352,89.6424,3.858e-05,3.67e-06,0.0,0 STARLINK-5861,1 55921U 23037H   24181.79422098  .00000367  00000-0  38580-4 0  9998,2 55921  69.9992  62.3397 0003338 270.4352  89.6424 14.98324775 71278,6950.209,96.107,574.394,569.754,0.0
55921.0,STARLINK-5861,PAYLOAD,2024-06-29 22:15:56,14.98335955,0.0002993,69.9997,62.0039,263.8814,96.2004,7.1631e-05,7.62e-06,0.0,0 STARLINK-5861,1 55921U 23037H   24181.92773322  .00000762  00000-0  71631-4 0  9995,2 55921  69.9997  62.0039 0002993 263.8814  96.2004 14.98335955 70952,6950.174,96.107,574.12,569.959,0.0
55921.0,STARLINK-5861,PAYLOAD,2024-06-30 01:28:12,14.98338221,0.0002773,70.0004,61.6679,261.8186,98.2658,0.0001151,1.281e-05,0.0,0 STARLINK-5861,1 55921U 23037H   24182.06125011  .00001281  00000-0  11510-3 0  9993,2 55921  70.0004  61.6679 0002773 261.8186  98.2658 14.98338221 71312,6950.167,96.106,573.96,570.105,0.0
55921.0,STARLINK-5861,PAYLOAD,2024-06-30 09:28:52,14.98336484,0.0002911,70.0004,60.8267,275.5356,84.5471,2.3689e-05,1.9e-06,0.0,0 STARLINK-5861,1 55921U 23037H   24182.39505264  .00000190  00000-0  23689-4 0  9990,2 55921  70.0004  60.8267 0002911 275.5356  84.5471 14.98336484 71029,6950.173,96.107,574.061,570.015,0.0
55921.0,STARLINK-5861,PAYLOAD,2024-06-30 20:41:49,14.98328396,0.0002982,69.9999,59.6461,276.6532,83.4288,-3.6993e-05,-5.34e-06,0.0,0 STARLINK-5861,1 55921U 23037H   24182.86237838 -.00000534  00000-0 -36993-4 0  9997,2 55921  69.9999  59.6461 0002982 276.6532  83.4288 14.98328396 71439,6950.198,96.107,574.135,569.99,0.0
55921.0,STARLINK-5861,PAYLOAD,2024-06-30 22:17:57,14.98330098,0.0002925,70.0,59.4789,272.0747,88.0077,-9.9397e-05,-1.279e-05,0.0,0 STARLINK-5861,1 55921U 23037H   24182.92913860 -.00001279  00000-0 -99397-4 0  9994,2 55921  70.0000  59.4789 0002925 272.0747  88.0077 14.98330098 71104,6950.193,96.107,574.091,570.025,0.0
